start=new Date('2022-01-31T00:00:00.000Z').valueOf();
sats=[{"TIME_SYSTEM":"UTC","ARG_OF_PERICENTER":"75.9229","APOAPSIS":"548.216","EPHEMERIS_TYPE":"0","DECAY_DATE":null,"INCLINATION":"53.0541","RA_OF_ASC_NODE":"126.0764","MEAN_MOTION_DOT":"-0.00003972","SITE":"AFETR","GP_ID":"194981711","REV_AT_EPOCH":"9024","TLE_LINE2":"2 45742  53.0541 126.0764 0001504  75.9229 284.1927 15.06412670 90242","COUNTRY_CODE":"US","EPOCH":"2022-01-30T15:32:01.784832","SEMIMAJOR_AXIS":"6925.310","NORAD_CAT_ID":"45742","MEAN_ELEMENT_THEORY":"SGP4","ECCENTRICITY":"0.00015040","BSTAR":"-0.00024780000000","ELEMENT_SET_NO":"999","LAUNCH_DATE":"2020-06-13","MEAN_MOTION_DDOT":"0.0000000000000","CLASSIFICATION_TYPE":"U","CENTER_NAME":"EARTH","OBJECT_TYPE":"PAYLOAD","REF_FRAME":"TEME","MEAN_MOTION":"15.06412670","PERIAPSIS":"546.133","TLE_LINE1":"1 45742U 20038N   22030.64724288 -.00003972  00000-0 -24780-3 0  9990","PERIOD":"95.591","OBJECT_NAME":"STARLINK-1481","FILE":"3287903","MEAN_ANOMALY":"284.1927","OBJECT_ID":"2020-038N","RCS_SIZE":"LARGE"},{"LAUNCH_DATE":"2020-06-13","MEAN_MOTION_DDOT":"0.0000000000000","CLASSIFICATION_TYPE":"U","REF_FRAME":"TEME","CENTER_NAME":"EARTH","OBJECT_TYPE":"PAYLOAD","PERIAPSIS":"546.057","MEAN_MOTION":"15.06417211","OBJECT_NAME":"STARLINK-1483","FILE":"3287903","PERIOD":"95.591","TLE_LINE1":"1 45743U 20038P   22030.66567626 -.00000189  00000-0  62038-5 0  9990","MEAN_ANOMALY":"300.5597","OBJECT_ID":"2020-038P","RCS_SIZE":"LARGE","DECAY_DATE":null,"TIME_SYSTEM":"UTC","APOAPSIS":"548.265","EPHEMERIS_TYPE":"0","ARG_OF_PERICENTER":"59.5549","RA_OF_ASC_NODE":"125.8478","INCLINATION":"53.0552","MEAN_MOTION_DOT":"-0.00000189","GP_ID":"194981462","SITE":"AFETR","REV_AT_EPOCH":"9025","TLE_LINE2":"2 45743  53.0552 125.8478 0001594  59.5549 300.5597 15.06417211 90259","COUNTRY_CODE":"US","EPOCH":"2022-01-30T15:58:34.428864","SEMIMAJOR_AXIS":"6925.296","NORAD_CAT_ID":"45743","MEAN_ELEMENT_THEORY":"SGP4","ELEMENT_SET_NO":"999","BSTAR":"0.00000620380000","ECCENTRICITY":"0.00015940"},{"OBJECT_TYPE":"PAYLOAD","CENTER_NAME":"EARTH","REF_FRAME":"TEME","PERIAPSIS":"546.315","MEAN_MOTION":"15.06398288","TLE_LINE1":"1 45744U 20038Q   22030.76889063 -.00000966  00000-0 -45974-4 0  9997","PERIOD":"95.592","FILE":"3287903","OBJECT_NAME":"STARLINK-1500","RCS_SIZE":"LARGE","OBJECT_ID":"2020-038Q","MEAN_ANOMALY":"290.7032","LAUNCH_DATE":"2020-06-13","MEAN_MOTION_DDOT":"0.0000000000000","CLASSIFICATION_TYPE":"U","COUNTRY_CODE":"US","TLE_LINE2":"2 45744  53.0522 125.5364 0001305  69.4097 290.7032 15.06398288 90274","REV_AT_EPOCH":"9027","EPOCH":"2022-01-30T18:27:12.150432","BSTAR":"-0.00004597400000","ECCENTRICITY":"0.00013050","ELEMENT_SET_NO":"999","SEMIMAJOR_AXIS":"6925.354","NORAD_CAT_ID":"45744","MEAN_ELEMENT_THEORY":"SGP4","EPHEMERIS_TYPE":"0","APOAPSIS":"548.123","ARG_OF_PERICENTER":"69.4097","TIME_SYSTEM":"UTC","DECAY_DATE":null,"RA_OF_ASC_NODE":"125.5364","INCLINATION":"53.0522","MEAN_MOTION_DOT":"-0.00000966","SITE":"AFETR","GP_ID":"194980210"},{"TLE_LINE2":"2 45745  53.0544 126.1906 0001228  65.6930 294.4187 15.06403223 90241","REV_AT_EPOCH":"9024","COUNTRY_CODE":"US","EPOCH":"2022-01-30T15:00:11.672640","SEMIMAJOR_AXIS":"6925.339","NORAD_CAT_ID":"45745","MEAN_ELEMENT_THEORY":"SGP4","ECCENTRICITY":"0.00012280","BSTAR":"0.00020156000000","ELEMENT_SET_NO":"999","DECAY_DATE":null,"TIME_SYSTEM":"UTC","APOAPSIS":"548.054","ARG_OF_PERICENTER":"65.6930","EPHEMERIS_TYPE":"0","RA_OF_ASC_NODE":"126.1906","INCLINATION":"53.0544","MEAN_MOTION_DOT":"0.00002722","GP_ID":"194980460","SITE":"AFETR","REF_FRAME":"TEME","CENTER_NAME":"EARTH","OBJECT_TYPE":"PAYLOAD","PERIAPSIS":"546.353","MEAN_MOTION":"15.06403223","OBJECT_NAME":"STARLINK-1503","FILE":"3287903","PERIOD":"95.592","TLE_LINE1":"1 45745U 20038R   22030.62513510  .00002722  00000-0  20156-3 0  9998","MEAN_ANOMALY":"294.4187","OBJECT_ID":"2020-038R","RCS_SIZE":"LARGE","LAUNCH_DATE":"2020-06-13","MEAN_MOTION_DDOT":"0.0000000000000","CLASSIFICATION_TYPE":"U"},{"LAUNCH_DATE":"2020-06-13","MEAN_MOTION_DDOT":"0.0000000000000","CLASSIFICATION_TYPE":"U","REF_FRAME":"TEME","CENTER_NAME":"EARTH","OBJECT_TYPE":"PAYLOAD","MEAN_MOTION":"15.06404944","PERIAPSIS":"546.095","OBJECT_NAME":"STARLINK-1504","FILE":"3287903","TLE_LINE1":"1 45746U 20038S   22030.63987726  .00003582  00000-0  25922-3 0  9995","PERIOD":"95.592","OBJECT_ID":"2020-038S","MEAN_ANOMALY":"293.9476","RCS_SIZE":"LARGE","DECAY_DATE":null,"TIME_SYSTEM":"UTC","EPHEMERIS_TYPE":"0","APOAPSIS":"548.302","ARG_OF_PERICENTER":"66.1680","INCLINATION":"53.0527","RA_OF_ASC_NODE":"126.1085","MEAN_MOTION_DOT":"0.00003582","GP_ID":"194981212","SITE":"AFETR","REV_AT_EPOCH":"9024","TLE_LINE2":"2 45746  53.0527 126.1085 0001594  66.1680 293.9476 15.06404944 90241","COUNTRY_CODE":"US","EPOCH":"2022-01-30T15:21:25.395264","SEMIMAJOR_AXIS":"6925.333","NORAD_CAT_ID":"45746","MEAN_ELEMENT_THEORY":"SGP4","BSTAR":"0.00025922000000","ELEMENT_SET_NO":"999","ECCENTRICITY":"0.00015940"},{"CLASSIFICATION_TYPE":"U","MEAN_MOTION_DDOT":"0.0000000000000","LAUNCH_DATE":"2020-06-13","RCS_SIZE":"LARGE","OBJECT_ID":"2020-038T","MEAN_ANOMALY":"309.4916","FILE":"3287749","OBJECT_NAME":"STARLINK-1506","TLE_LINE1":"1 45747U 20038T   22030.57720714 -.00005029  00000-0 -31866-3 0  9995","PERIOD":"95.590","MEAN_MOTION":"15.06433040","PERIAPSIS":"546.371","REF_FRAME":"TEME","OBJECT_TYPE":"PAYLOAD","CENTER_NAME":"EARTH","GP_ID":"194957742","SITE":"AFETR","MEAN_MOTION_DOT":"-0.00005029","INCLINATION":"53.0547","RA_OF_ASC_NODE":"126.3962","DECAY_DATE":null,"EPHEMERIS_TYPE":"0","APOAPSIS":"547.854","ARG_OF_PERICENTER":"50.6167","TIME_SYSTEM":"UTC","BSTAR":"-0.00031866000000","ECCENTRICITY":"0.00010710","ELEMENT_SET_NO":"999","MEAN_ELEMENT_THEORY":"SGP4","SEMIMAJOR_AXIS":"6925.247","NORAD_CAT_ID":"45747","EPOCH":"2022-01-30T13:51:10.696896","COUNTRY_CODE":"US","TLE_LINE2":"2 45747  53.0547 126.3962 0001071  50.6167 309.4916 15.06433040 91161","REV_AT_EPOCH":"9116"},{"CLASSIFICATION_TYPE":"U","MEAN_MOTION_DDOT":"0.0000000000000","LAUNCH_DATE":"2020-06-13","RCS_SIZE":"LARGE","OBJECT_ID":"2020-038U","MEAN_ANOMALY":"280.7224","TLE_LINE1":"1 45748U 20038U   22030.63155706  .00000851  00000-0  76038-4 0  9993","PERIOD":"95.592","FILE":"3287903","OBJECT_NAME":"STARLINK-1507","MEAN_MOTION":"15.06399043","PERIAPSIS":"546.153","OBJECT_TYPE":"PAYLOAD","CENTER_NAME":"EARTH","REF_FRAME":"TEME","SITE":"AFETR","GP_ID":"194980710","MEAN_MOTION_DOT":"0.00000851","RA_OF_ASC_NODE":"126.1690","INCLINATION":"53.0517","APOAPSIS":"548.280","ARG_OF_PERICENTER":"79.3938","EPHEMERIS_TYPE":"0","TIME_SYSTEM":"UTC","DECAY_DATE":null,"ELEMENT_SET_NO":"999","BSTAR":"0.00007603800000","ECCENTRICITY":"0.00015350","SEMIMAJOR_AXIS":"6925.351","NORAD_CAT_ID":"45748","MEAN_ELEMENT_THEORY":"SGP4","EPOCH":"2022-01-30T15:09:26.529984","COUNTRY_CODE":"US","TLE_LINE2":"2 45748  53.0517 126.1690 0001535  79.3938 280.7224 15.06399043 90249","REV_AT_EPOCH":"9024"},{"APOAPSIS":"548.301","EPHEMERIS_TYPE":"0","ARG_OF_PERICENTER":"72.5928","TIME_SYSTEM":"UTC","DECAY_DATE":null,"RA_OF_ASC_NODE":"104.8394","INCLINATION":"53.0538","MEAN_MOTION_DOT":"0.00002866","SITE":"AFETR","GP_ID":"194980960","COUNTRY_CODE":"US","TLE_LINE2":"2 45750  53.0538 104.8394 0001599  72.5928 287.5236 15.06406496 90589","REV_AT_EPOCH":"9058","EPOCH":"2022-01-30T22:12:46.399392","BSTAR":"0.00021118000000","ECCENTRICITY":"0.00015990","ELEMENT_SET_NO":"999","SEMIMAJOR_AXIS":"6925.329","NORAD_CAT_ID":"45750","MEAN_ELEMENT_THEORY":"SGP4","LAUNCH_DATE":"2020-06-13","MEAN_MOTION_DDOT":"0.0000000000000","CLASSIFICATION_TYPE":"U","OBJECT_TYPE":"PAYLOAD","CENTER_NAME":"EARTH","REF_FRAME":"TEME","PERIAPSIS":"546.086","MEAN_MOTION":"15.06406496","PERIOD":"95.592","TLE_LINE1":"1 45750U 20038W   22030.92553703  .00002866  00000-0  21118-3 0  9993","FILE":"3287903","OBJECT_NAME":"STARLINK-1391","RCS_SIZE":"LARGE","MEAN_ANOMALY":"287.5236","OBJECT_ID":"2020-038W"},{"CLASSIFICATION_TYPE":"U","MEAN_MOTION_DDOT":"0.0000000000000","LAUNCH_DATE":"2020-06-13","RCS_SIZE":"LARGE","MEAN_ANOMALY":"297.2888","OBJECT_ID":"2020-038X","FILE":"3287903","OBJECT_NAME":"STARLINK-1464","TLE_LINE1":"1 45751U 20038X   22030.92185919  .00007630  00000-0  53037-3 0  9993","PERIOD":"95.591","MEAN_MOTION":"15.06414548","PERIAPSIS":"546.189","REF_FRAME":"TEME","OBJECT_TYPE":"PAYLOAD","CENTER_NAME":"EARTH","GP_ID":"194981712","SITE":"AFETR","MEAN_MOTION_DOT":"0.00007630","RA_OF_ASC_NODE":"104.8449","INCLINATION":"53.0551","DECAY_DATE":null,"EPHEMERIS_TYPE":"0","APOAPSIS":"548.149","ARG_OF_PERICENTER":"62.8245","TIME_SYSTEM":"UTC","ELEMENT_SET_NO":"999","BSTAR":"0.00053037000000","ECCENTRICITY":"0.00014150","NORAD_CAT_ID":"45751","SEMIMAJOR_AXIS":"6925.304","MEAN_ELEMENT_THEORY":"SGP4","EPOCH":"2022-01-30T22:07:28.634016","COUNTRY_CODE":"US","TLE_LINE2":"2 45751  53.0551 104.8449 0001415  62.8245 297.2888 15.06414548 90585","REV_AT_EPOCH":"9058"},{"INCLINATION":"53.0020","RA_OF_ASC_NODE":"222.8321","DECAY_DATE":null,"TIME_SYSTEM":"UTC","ARG_OF_PERICENTER":"288.5850","APOAPSIS":"335.409","EPHEMERIS_TYPE":"0","GP_ID":"194981463","SITE":"AFETR","MEAN_MOTION_DOT":"-0.00325714","REV_AT_EPOCH":"9393","TLE_LINE2":"2 45752  53.0020 222.8321 0006499 288.5850  71.4464 15.79785908 93938","COUNTRY_CODE":"US","SEMIMAJOR_AXIS":"6709.184","NORAD_CAT_ID":"45752","MEAN_ELEMENT_THEORY":"SGP4","BSTAR":"-0.00179310000000","ELEMENT_SET_NO":"999","ECCENTRICITY":"0.00064990","EPOCH":"2022-01-30T22:00:26.515584","LAUNCH_DATE":"2020-06-13","CLASSIFICATION_TYPE":"U","MEAN_MOTION_DDOT":"0.0000000000000","MEAN_MOTION":"15.79785908","PERIAPSIS":"326.688","REF_FRAME":"TEME","CENTER_NAME":"EARTH","OBJECT_TYPE":"PAYLOAD","OBJECT_ID":"2020-038Y","MEAN_ANOMALY":"71.4464","RCS_SIZE":"LARGE","OBJECT_NAME":"STARLINK-1469","FILE":"3287903","TLE_LINE1":"1 45752U 20038Y   22030.91697356 -.00325714  00000-0 -17931-2 0  9996","PERIOD":"91.152"}];
